{
    "links": {
        "self": "http://www.neowsapp.com/rest/v1/neo/3713948?api_key=iIulBulltgU6a56xZRHN4H3l9WmuAYTsLGpBGhQ2"
    },
    "id": "3713948",
    "neo_reference_id": "3713948",
    "name": "(2015 FC34)",
    "designation": "2015 FC34",
    "nasa_jpl_url": "http://ssd.jpl.nasa.gov/sbdb.cgi?sstr=3713948",
    "absolute_magnitude_h": 23.0,
    "estimated_diameter": {
        "kilometers": {
            "estimated_diameter_min": 0.0667659413,
            "estimated_diameter_max": 0.1492931834
        },
        "meters": {
            "estimated_diameter_min": 66.7659413495,
            "estimated_diameter_max": 149.2931834393
        },
        "miles": {
            "estimated_diameter_min": 0.0414864197,
            "estimated_diameter_max": 0.0927664547
        },
        "feet": {
            "estimated_diameter_min": 219.0483710172,
            "estimated_diameter_max": 489.807047955
        }
    },
    "is_potentially_hazardous_asteroid": false,
    "close_approach_data": [
        {
            "close_approach_date": "2015-04-01",
            "close_approach_date_full": "2015-Apr-01 22:59",
            "epoch_date_close_approach": 1427929140000,
            "relative_velocity": {
                "kilometers_per_second": "15.8551832487",
                "kilometers_per_hour": "57078.6596952674",
                "miles_per_hour": "35466.4594089844"
            },
            "miss_distance": {
                "astronomical": "0.0649777188",
                "lunar": "25.2763326132",
                "kilometers": "9720528.329938956",
                "miles": "6040056.2230953528"
            },
            "orbiting_body": "Earth"
        }
    ],
    "orbital_data": {
        "orbit_id": "11",
        "orbit_determination_date": "2018-02-10 07:06:23",
        "first_observation_date": "2015-03-20",
        "last_observation_date": "2015-03-30",
        "data_arc_in_days": 10,
        "observations_used": 49,
        "orbit_uncertainty": "8",
        "minimum_orbit_intersection": ".006718",
        "jupiter_tisserand_invariant": "3.980",
        "epoch_osculation": "2457103.5",
        "eccentricity": ".5822310488292919",
        "semi_major_axis": "1.695087429332993",
        "inclination": "11.16411539651434",
        "ascending_node_longitude": "185.5325241605553",
        "orbital_period": "806.0956576279592",
        "perihelion_distance": ".7081548974950962",
        "perihelion_argument": "79.97744672609458",
        "aphelion_distance": "2.682019961170889",
        "perihelion_time": "2457162.142670278098",
        "mean_anomaly": "333.8103522822115",
        "mean_motion": ".446597121065441",
        "equinox": "J2000",
        "orbit_class": {
            "orbit_class_type": "APO",
            "orbit_class_description": "Near-Earth asteroid orbits which cross the Earth’s orbit similar to that of 1862 Apollo",
            "orbit_class_range": "a (semi-major axis) > 1.0 AU; q (perihelion) < 1.017 AU"
        }
    },
    "is_sentry_object": false
}